KUIPER-00511            
1 68888U 26095AA  26160.61557499  .00026860  00000+0  71725-3 0  9997
2 68888  51.8783 279.0439 0006504 277.0193  83.0054 15.37895250  6562
KUIPER-00512            
1 68889U 26095AB  26160.91668981 -.00038037  00000+0 -35197-2 0  9993
2 68889  51.8951 280.8173 0003675 336.7373   7.5330 14.94075430  5529
KUIPER-00519            
1 68890U 26095AC  26160.58980810  .00029852  00000+0  80555-3 0  9998
2 68890  51.8843 278.8954 0000608 277.2525  82.8393 15.37530858  6564
KUIPER-00521            
1 68891U 26095AD  26160.51835184  .00023904  00000+0  62828-3 0  9990
2 68891  51.8858 279.1647 0000390 101.5971 258.5061 15.38467912  6550
KUIPER-00524            
1 68892U 26095AE  26160.91668981 -.00009495  00000+0 -32736-3 0  9990
2 68892  51.8861 277.4494 0001050 328.1109 311.9341 15.28300759  3376
VIASAT-3 F3             
1 68893U 26096A   26159.56185878 -.00000066  00000+0  00000+0 0  9999
2 68893   1.4665 279.8287 0751592 189.6625   8.3883  1.13255780   515
STARLINK-37527          
1 68895U 26097A   26160.50455768  .00024129  00000+0  74692-3 0  9993
2 68895  97.2828 356.0480 0002709 115.5199 244.6324 15.33460646  6301
STARLINK-37432          
1 68896U 26097B   26160.79820793  .00011593  00000+0  36057-3 0  9993
2 68896  97.2857 356.4154 0001905  91.2192 268.9269 15.33470660  6355
STARLINK-37534          
1 68897U 26097C   26160.78188993  .00019146  00000+0  59412-3 0  9994
2 68897  97.2853 356.4358 0001476  93.1100 267.0311 15.33431765  6352
STARLINK-37386          
1 68898U 26097D   26160.81451632  .00015225  00000+0  47271-3 0  9996
2 68898  97.2853 356.3922 0001720 106.3404 253.8028 15.33463332  6358
STARLINK-37514          
1 68899U 26097E   26160.49642232  .00041100  00000+0  12673-2 0  9997
2 68899  97.2842 356.0644 0002162  81.7760 278.3727 15.33474206  6302
STARLINK-36961          
1 68900U 26097F   26160.80636225  .00012112  00000+0  37673-3 0  9999
2 68900  97.2873 356.4048 0001570  97.3877 262.7545 15.33457925  6354
STARLINK-37360          
1 68901U 26097G   26160.51271243  .00020785  00000+0  64420-3 0  9998
2 68901  97.2852 356.1912 0000800 108.2077 251.9253 15.33453697  6312
STARLINK-37564          
1 68902U 26097H   26160.79007397  .00042521  00000+0  13119-2 0  9996
2 68902  97.2856 356.4257 0001452  95.3063 264.8346 15.33447715  6351
STARLINK-37567          
1 68903U 26097J   26160.81180125  .00022939  00000+0  71047-3 0  9997
2 68903  97.2868 356.3976 0001348 101.6307 258.5087 15.33455799  6351
STARLINK-37528          
1 68904U 26097K   26160.78732742  .00015530  00000+0  48224-3 0  9992
2 68904  97.2856 356.4296 0001527  99.2116 260.9300 15.33454716  6357
STARLINK-37494          
1 68905U 26097L   26160.80364124  .00015059  00000+0  46751-3 0  9990
2 68905  97.2849 356.4072 0001954  93.8786 266.2680 15.33468199  6359
STARLINK-37541          
1 68906U 26097M   26160.50183086  .00003845  00000+0  12136-3 0  9994
2 68906  97.2851 356.0538 0001697  89.4206 270.7231 15.33446522  6301
STARLINK-37551          
1 68907U 26097N   26160.49912075  .00013542  00000+0  42101-3 0  9991
2 68907  97.2853 356.0568 0001764  83.0638 277.0805 15.33446671  6303
STARLINK-37566          
1 68908U 26097P   26160.81995404  .00024298  00000+0  75251-3 0  9997
2 68908  97.2856 356.3863 0001351  95.1151 265.0246 15.33446730  6351
STARLINK-37544          
1 68909U 26097Q   26160.81724824 -.00000460  00000+0 -11932-4 0  9998
2 68909  97.2819 356.3898 0002231  89.4611 270.6887 15.33411278  6356
STARLINK-37493          
1 68910U 26097R   26160.54806058  .00019485  00000+0  60413-3 0  9992
2 68910  97.2845 356.1427 0001768 111.0694 249.0738 15.33454242  6319
STARLINK-37543          
1 68911U 26097S   26160.79548854  .00016590  00000+0  51501-3 0  9999
2 68911  97.2853 356.4166 0001663  98.3996 261.7435 15.33449117  6352
STARLINK-37477          
1 68912U 26097T   26160.78461220  .00016013  00000+0  49714-3 0  9993
2 68912  97.2858 356.4323 0001384  97.5708 262.5692 15.33453072  6354
STARLINK-37504          
1 68913U 26097U   26160.80092675  .00018808  00000+0  58333-3 0  9992
2 68913  97.2858 356.4103 0001857  95.1486 264.9969 15.33451103  6359
STARLINK-37540          
1 68914U 26097V   26160.79276077  .00018416  00000+0  57093-3 0  9998
2 68914  97.2873 356.4219 0001274  93.6108 266.5281 15.33470149  6358
STARLINK-37516          
1 68915U 26097W   26160.50999381  .00020496  00000+0  63531-3 0  9993
2 68915  97.2853 356.1963 0001655  85.3206 274.8226 15.33451530  6310
STARLINK-37507          
1 68916U 26097X   26160.77917024  .00016175  00000+0  50212-3 0  9998
2 68916  97.2862 356.4419 0001256  98.1475 261.9910 15.33455123  6350
STARLINK-37542          
1 68917U 26097Y   26160.51543190  .00011676  00000+0  36332-3 0  9998
2 68917  97.2854 356.1883 0001461  91.4739 268.6671 15.33453067  6310
STARLINK-37529          
1 68918U 26097Z   26160.50729075  .00015331  00000+0  47613-3 0  9992
2 68918  97.2851 356.1979 0001363  71.7239 288.4152 15.33452026  6319
KUIPER-00370            
1 68919U 26098A   26160.91668981 -.00000268  00000+0  33566-5 0  9995
2 68919  51.8743 103.8655 0014691 128.6771 288.6289 15.28226926  4947
KUIPER-00380            
1 68920U 26098B   26160.12667364  .00029192  00000+0  93460-3 0  9997
2 68920  51.8739 106.9684 0008619 109.9725 250.2188 15.32125315  6102
KUIPER-00386            
1 68921U 26098C   26160.13983317  .00020633  00000+0  59226-3 0  9991
2 68921  51.8727 106.3167 0003064 134.9362 225.1873 15.35818862  6116
KUIPER-00388            
1 68922U 26098D   26160.33336806  .00047629  00000+0  17029-2 0  9997
2 68922  51.8724 106.8744 0022360 115.3956 221.4716 15.28111375  5045
KUIPER-00405            
1 68923U 26098E   26160.55064695  .00016365  00000+0  55990-3 0  9999
2 68923  51.8761 105.3085 0014600 124.3470 235.8897 15.30289835  6161
KUIPER-00408            
1 68924U 26098F   26160.57827830  .00019713  00000+0  70429-3 0  9994
2 68924  51.8769 105.4813 0014874 123.2479 236.9932 15.28738003  6165
KUIPER-00409            
1 68925U 26098G   26160.56662710  .00023592  00000+0  72874-3 0  9994
2 68925  51.8752 104.6723 0008057 118.2507 241.9292 15.33393727  6173
KUIPER-00410            
1 68926U 26098H   26160.11797652  .00011238  00000+0  41445-3 0  9994
2 68926  51.8756 107.6417 0014808 121.0832 239.1606 15.28175856  6099
KUIPER-00412            
1 68927U 26098J   26160.57835851  .00023030  00000+0  64138-3 0  9996
2 68927  51.8768 104.0295 0002123 163.9121 196.1934 15.36695856  6183
KUIPER-00413            
1 68928U 26098K   26160.14562196  .00017284  00000+0  61978-3 0  9992
2 68928  51.8729 107.8144 0025077 131.1031 229.2122 15.28521734  6096
KUIPER-00414            
1 68929U 26098L   26160.91668981 -.00003096  00000+0 -16874-3 0  9990
2 68929  51.8875 104.8119 0023869 117.2441 156.7248 15.10002983  5885
KUIPER-00415            
1 68930U 26098M   26160.91668981 -.00000558  00000+0 -59027-5 0  9991
2 68930  51.8776 103.2464 0012140 110.6068 263.9009 15.31685156  5748
KUIPER-00416            
1 68931U 26098N   26160.57259349  .00029200  00000+0  80321-3 0  9990
2 68931  51.8744 103.9808 0001035 131.3095 228.7981 15.36947002  6187
KUIPER-00420            
1 68932U 26098P   26160.14139936  .00020281  00000+0  58264-3 0  9994
2 68932  51.8762 106.3406 0003460 124.6441 235.4872 15.35803509  6112
KUIPER-00421            
1 68933U 26098Q   26160.91668981 -.00001949  00000+0 -49466-4 0  9994
2 68933  51.8776 102.9846 0009339 101.1058  40.1521 15.32432588  3743
KUIPER-00425            
1 68934U 26098R   26160.91668981 -.00002953  00000+0 -91618-4 0  9997
2 68934  51.8752 103.8677 0018593 127.0841 291.5960 15.28463895  5616
KUIPER-00430            
1 68935U 26098S   26160.13025993  .00017269  00000+0  61571-3 0  9990
2 68935  51.8774 107.7290 0020613 121.9230 238.3762 15.28805493  6092
KUIPER-00431            
1 68936U 26098T   26160.07723495  .00003874  00000+0  15234-3 0  9998
2 68936  51.8727 108.1103 0018081 118.6311 241.6493 15.27950612  6088
KUIPER-00432            
1 68937U 26098U   26160.91668981 -.00000643  00000+0 -92117-5 0  9990
2 68937  51.8731 103.4604 0013429 118.5188 143.1385 15.30201701  5740
KUIPER-00434            
1 68938U 26098V   26160.55653297 -.00075407  00000+0 -22929-2 0  9996
2 68938  51.8745 104.6017 0006821 107.7840 252.3890 15.33650287  6172
KUIPER-00436            
1 68939U 26098W   26160.19867601  .00023220  00000+0  73401-3 0  9999
2 68939  51.8773 106.7030 0011523 116.0236 244.1937 15.32635173  6110
KUIPER-00438            
1 68940U 26098X   26160.55807410  .00023379  00000+0  73212-3 0  9998
2 68940  51.8750 104.6153 0004875 125.5894 234.5545 15.32980359  6170
KUIPER-00439            
1 68941U 26098Y   26160.58029737  .00020699  00000+0  65930-3 0  9990
2 68941  51.8765 104.7694 0006942 126.2194 233.9434 15.32503193  6173
KUIPER-00440            
1 68942U 26098Z   26160.55580871  .00031648  00000+0  95238-3 0  9999
2 68942  51.8781 104.6183 0004835 138.8992 221.2359 15.34079695  6171
KUIPER-00442            
1 68943U 26098AA  26160.91668981  .00001933  00000+0  68421-4 0  9998
2 68943  51.8779 102.9029 0006335 122.4651  61.3557 15.34383057  5270
KUIPER-00446            
1 68944U 26098AB  26160.55710231  .00019408  00000+0  58601-3 0  9999
2 68944  51.8755 104.6095 0006767 114.5305 245.6386 15.34250318  6174
KUIPER-00451            
1 68945U 26098AC  26160.58414730  .00020545  00000+0  75318-3 0  9996
2 68945  51.8777 105.5269 0013139 118.8158 241.4145 15.27885554  6160
KUIPER-00452            
1 68946U 26098AD  26160.13819748  .00023116  00000+0  65805-3 0  9993
2 68946  51.8735 106.3109 0003858 111.7774 248.3623 15.36005798  6116
KUIPER-00453            
1 68947U 26098AE  26160.12269463  .00023098  00000+0  64271-3 0  9991
2 68947  51.8741 106.2136 0003036 146.6120 213.5058 15.36720582  6114
